QIANFAN-60              
1 62790U 25016F   25227.63011615  .00000089  00000+0  11954-3 0  9998
2 62790  88.9809 115.4004 0014936 336.4239  23.6226 13.50960035 31148
QIANFAN-61              
1 62791U 25016G   25227.56858063  .00000092  00000+0  12407-3 0  9995
2 62791  88.9877 115.4836 0014336 335.5489  24.4981 13.50965785 31153
QIANFAN-62              
1 62792U 25016H   25227.57255061  .00000096  00000+0  12950-3 0  9993
2 62792  88.9823 115.4160 0015737 335.1733  24.8659 13.50959723 31149
QIANFAN-63              
1 62793U 25016J   25227.58493578  .00000088  00000+0  11830-3 0  9999
2 62793  88.9830 115.3554 0015699 339.8818  20.1713 13.50956831 31187
QIANFAN-64              
1 62794U 25016K   25227.57664764  .00000094  00000+0  12691-3 0  9999
2 62794  88.9816 115.3523 0013339 334.6221  25.4273 13.50959294 31172
QIANFAN-65              
1 62795U 25016L   25227.63435188  .00000086  00000+0  11443-3 0  9998
2 62795  88.9812 115.3737 0013577 336.2071  23.8451 13.50963286 31166
QIANFAN-66              
1 62796U 25016M   25227.58898906  .00000093  00000+0  12539-3 0  9999
2 62796  88.9832 115.3251 0014536 331.1944  28.8403 13.50958420 31200
QIANFAN-67              
1 62797U 25016N   25227.51908898  .00000090  00000+0  12115-3 0  9992
2 62797  88.9823 115.3696 0014763 338.4382  21.6146 13.50967099 31164
QIANFAN-68              
1 62798U 25016P   25227.52316409  .00000093  00000+0  12598-3 0  9993
2 62798  88.9826 115.4130 0015321 336.3578  23.6867 13.50964512 31144
QIANFAN-69              
1 62799U 25016Q   25227.52726189  .00000098  00000+0  13324-3 0  9997
2 62799  88.9804 115.3048 0015529 337.2632  22.7829 13.50960112 31183
QIANFAN-70              
1 62800U 25016R   25227.54376519  .00000103  00000+0  14166-3 0  9992
2 62800  88.9826 115.4162 0014769 327.5894  32.4348 13.50963968 31147
QIANFAN-71              
1 62801U 25016S   25227.53973319  .00000093  00000+0  12518-3 0  9990
2 62801  88.9819 115.4035 0015569 340.8343  19.2221 13.50963703 31145
QIANFAN-72              
1 62802U 25016T   25227.53550244  .00000100  00000+0  13621-3 0  9994
2 62802  88.9809 115.4240 0019192 345.9683  14.0933 13.50959145 31139
QIANFAN-73              
1 63159U 25046A   25227.58323283  .00000163  00000+0  23338-3 0  9994
2 63159  88.9864 332.3086 0017009 108.4588 251.8413 13.50962292 31327
QIANFAN-74              
1 63160U 25046B   25227.56676146  .00000163  00000+0  23384-3 0  9994
2 63160  88.9864 332.1988 0001981 107.0310 253.1058 13.50967252 31385
QIANFAN-75              
1 63161U 25046C   25227.55448432  .00000165  00000+0  23656-3 0  9993
2 63161  88.9865 332.4319 0018163 111.3909 248.9182 13.50963512 31251
QIANFAN-76              
1 63162U 25046D   25227.55023147  .00000170  00000+0  24492-3 0  9991
2 63162  88.9864 332.4135 0015726 111.9534 248.3290 13.50959983 31261
QIANFAN-77              
1 63163U 25046E   25227.56251977  .00000363  00000+0  25450-3 0  9996
2 63163  88.9861 331.3968 0016930  94.4941 265.8170 13.96015805 31825
QIANFAN-78              
1 63164U 25046F   25227.59148519  .00000164  00000+0  23573-3 0  9990
2 63164  88.9863 332.2746 0017096 113.9458 246.3486 13.50963212 31341
QIANFAN-79              
1 63165U 25046G   25227.54611778  .00000172  00000+0  24702-3 0  9992
2 63165  88.9867 332.3821 0016781 112.5562 247.7366 13.50965342 31283
QIANFAN-80              
1 63166U 25046H   25227.56268905  .00000159  00000+0  22740-3 0  9990
2 63166  88.9865 332.0906 0015759 116.2686 244.0087 13.50965425 31445
QIANFAN-81              
1 63167U 25046J   25227.54208795  .00000168  00000+0  24181-3 0  9991
2 63167  88.9864 332.1612 0016767 106.1349 254.1649 13.50964115 31399
QIANFAN-82              
1 63168U 25046K   25227.57489206  .00000167  00000+0  23946-3 0  9990
2 63168  88.9865 332.2013 0014913 112.9944 247.2782 13.50961054 31383
QIANFAN-83              
1 63169U 25046L   25227.53414394  .00000192  00000+0  23348-3 0  9997
2 63169  88.9864 332.2153 0016208 105.8014 254.4931 13.61936079 31372
QIANFAN-84              
1 63170U 25046M   25227.52962846  .00000162  00000+0  23260-3 0  9998
2 63170  88.9864 332.3390 0017873 109.9187 250.3891 13.50968264 31305
QIANFAN-85              
1 63171U 25046N   25227.52562628  .00000155  00000+0  22101-3 0  9998
2 63171  88.9864 332.2116 0015251 112.1844 248.0927 13.50962059 31372
QIANFAN-86              
1 63172U 25046P   25227.53384988  .00000164  00000+0  23560-3 0  9991
2 63172  88.9866 332.0702 0013130 115.8134 244.4373 13.50962468 31458
QIANFAN-87              
1 63173U 25046Q   25227.57902870  .00000173  00000+0  24854-3 0  9999
2 63173  88.9863 332.1817 0013853 111.3289 248.9342 13.50959117 31393
QIANFAN-88              
1 63174U 25046R   25227.52155773  .00000150  00000+0  21336-3 0  9994
2 63174  88.9865 332.1392 0014200 118.4111 241.8473 13.50966544 31415
QIANFAN-89              
1 63175U 25046S   25227.55846750  .00000161  00000+0  23032-3 0  9997
2 63175  88.9865 332.3244 0018551 110.2939 250.0208 13.50967308 31311
QIANFAN-90              
1 63176U 25046T   25227.58726570  .00000169  00000+0  24247-3 0  9995
2 63176  88.9865 332.2936 0015490 108.6497 251.6337 13.50966164 31339
